ONEWEB-0256             
1 48974U 21060H   23247.00168919 -.00000072  00000+0 -22184-3 0  9993
2 48974  87.8986  71.2629 0001499  95.1688 264.9614 13.16592063107070
ONEWEB-0257             
1 48975U 21060J   23246.80748001  .00000099  00000+0  22474-3 0  9996
2 48975  87.8963  71.2724 0001704  96.8849 263.2476 13.16592627107005
ONEWEB-0258             
1 48976U 21060K   23246.96155724  .00000264  00000+0  65798-3 0  9998
2 48976  87.8979  71.2702 0002004  84.1919 275.9441 13.16601143107029
ONEWEB-0259             
1 48977U 21060L   23246.49927273  .00000074  00000+0  15966-3 0  9994
2 48977  87.8972  71.3471 0002113  85.5210 274.6162 13.16592324105717
ONEWEB-0260             
1 48978U 21060M   23246.49291545  .00000054  00000+0  10712-3 0  9993
2 48978  87.8992  71.3783 0001495 117.3066 242.8217 13.16595354105692
ONEWEB-0261             
1 48979U 21060N   23246.99113686  .00000041  00000+0  73882-4 0  9992
2 48979  87.9078  71.2371 0002102 100.9328 259.2039 13.16595536107111
ONEWEB-0262             
1 48980U 21060P   23246.97212829  .00000021  00000+0  21954-4 0  9992
2 48980  87.8983  71.2394 0002334  86.3493 273.7905 13.16590968107071
ONEWEB-0263             
1 48981U 21060Q   23246.47181650 -.00000067  00000+0 -20921-3 0  9999
2 48981  87.8988  71.3561 0002262  95.3428 264.7961 13.16594538105675
